[{"OBJECT_NAME":"DAQI 1","OBJECT_ID":"2022-039A","EPOCH":"2026-03-09T22:54:20.613600","MEAN_MOTION":14.57656651,"ECCENTRICITY":0.00031421,"INCLINATION":98.1406,"RA_OF_ASC_NODE":9.9086,"ARG_OF_PERICENTER":179.0073,"MEAN_ANOMALY":181.1133,"EPHEMERIS_TYPE":0,"CLASSIFICATION_TYPE":"U","NORAD_CAT_ID":52257,"ELEMENT_SET_NO":999,"REV_AT_EPOCH":20748,"BSTAR":0.00015776959,"MEAN_MOTION_DOT":6.74e-6,"MEAN_MOTION_DDOT":0},{"OBJECT_NAME":"NOAA 16 DEB","OBJECT_ID":"2000-055JC","EPOCH":"2026-03-09T11:28:11.986464","MEAN_MOTION":14.56292148,"ECCENTRICITY":0.00221447,"INCLINATION":98.9506,"RA_OF_ASC_NODE":257.4673,"ARG_OF_PERICENTER":15.2105,"MEAN_ANOMALY":344.9752,"EPHEMERIS_TYPE":0,"CLASSIFICATION_TYPE":"U","NORAD_CAT_ID":41359,"ELEMENT_SET_NO":999,"REV_AT_EPOCH":52553,"BSTAR":0.0024006547,"MEAN_MOTION_DOT":0.00010627,"MEAN_MOTION_DDOT":0}]
